{"type": "FeatureCollection", "features": [ {"type": "Feature", "properties": {"norad_id": 66555, "name": "ELECTRON KICK STAGE R/B", "group": "last-30-days", "lat": -12.897013418224672, "lon": -70.83594880197748, "alt_km": 474.6712566669903, "timestamp": "2025-12-06T05:40:08.011910+00:00", "meta": {"OBJECT_NAME": "ELECTRON KICK STAGE R/B", "OBJECT_ID": "2025-267B", "EPOCH": "2025-12-04T15:15:31.817952", "MEAN_MOTION": 15.32232828, "ECCENTRICITY": 0.00072797, "INCLINATION": 42.0175, "RA_OF_ASC_NODE": 103.6834, "ARG_OF_PERICENTER": 353.8025, "MEAN_ANOMALY": 6.2722, "EPHEMERIS_TYPE": 0, "CLASSIFICATION_TYPE": "U", "NORAD_CAT_ID": 66555, "ELEMENT_SET_NO": 999, "REV_AT_EPOCH": 216, "BSTAR": 0.0014703471, "MEAN_MOTION_DOT": 0.00046832, "MEAN_MOTION_DDOT": 0}, "tle": {"line1": "1 66555U 25267B   25338.63578493  .00046832  00000+0  14703-2 0  9994", "line2": "2 66555  42.0175 103.6834 0007279 353.8025   6.2722 15.32232828  2168"}}, "geometry": {"type": "Point", "coordinates": [-70.83594880197748, -12.897013418224672]}}, {"type": "Feature", "properties": {"norad_id": 66557, "name": "STARLINK-35699", "group": "last-30-days", "lat": 27.22674760535488, "lon": -167.08503973202835, "alt_km": 373.55282148290917, "timestamp": "2025-12-06T05:40:08.011923+00:00", "meta": {"OBJECT_NAME": "STARLINK-35699", "OBJECT_ID": "2025-268A", "EPOCH": "2025-12-05T06:00:02.000160", "MEAN_MOTION": 15.67855488, "ECCENTRICITY": 0.00015753, "INCLINATION": 42.9996, "RA_OF_ASC_NODE": 165.3009, "ARG_OF_PERICENTER": 261.4576, "MEAN_ANOMALY": 335.1464, "EPHEMERIS_TYPE": 0, "CLASSIFICATION_TYPE": "U", "NORAD_CAT_ID": 66557, "ELEMENT_SET_NO": 999, "REV_AT_EPOCH": 346, "BSTAR": -0.019852252, "MEAN_MOTION_DOT": -0.01984622, "MEAN_MOTION_DDOT": 0}, "tle": {"line1": "1 66557U 25268A   25339.25002315 -.01984622  00000+0 -19852-1 0  9991", "line2": "2 66557  42.9996 165.3009 0001575 261.4576 335.1464 15.67855488  3469"}}, "geometry": {"type": "Point", "coordinates": [-167.08503973202835, 27.22674760535488]}}, {"type": "Feature", "properties": {"norad_id": 66558, "name": "STARLINK-35695", "group": "last-30-days", "lat": 28.30304105195578, "lon": -165.301190735721, "alt_km": 373.458379573226, "timestamp": "2025-12-06T05:40:08.011934+00:00", "meta": {"OBJECT_NAME": "STARLINK-35695", "OBJECT_ID": "2025-268B", "EPOCH": "2025-12-05T06:00:02.000160", "MEAN_MOTION": 15.67856906, "ECCENTRICITY": 0.00016255, "INCLINATION": 42.9995, "RA_OF_ASC_NODE": 165.2964, "ARG_OF_PERICENTER": 261.382, "MEAN_ANOMALY": 337.1386, "EPHEMERIS_TYPE": 0, "CLASSIFICATION_TYPE": "U", "NORAD_CAT_ID": 66558, "ELEMENT_SET_NO": 999, "REV_AT_EPOCH": 346, "BSTAR": -0.019878436, "MEAN_MOTION_DOT": -0.01987069, "MEAN_MOTION_DDOT": 0}, "tle": {"line1": "1 66558U 25268B   25339.25002315 -.01987069  00000+0 -19878-1 0  9998", "line2": "2 66558  42.9995 165.2964 0001625 261.3820 337.1386 15.67856906  3466"}}, "geometry": {"type": "Point", "coordinates": [-165.301190735721, 28.30304105195578]}}, {"type": "Feature", "properties": {"norad_id": 66559, "name": "STARLINK-35419", "group": "last-30-days", "lat": 29.354516835156282, "lon": -163.4830227148421, "alt_km": 373.2859293323454, "timestamp": "2025-12-06T05:40:08.011947+00:00", "meta": {"OBJECT_NAME": "STARLINK-35419", "OBJECT_ID": "2025-268C", "EPOCH": "2025-12-05T06:00:02.000160", "MEAN_MOTION": 15.67862119, "ECCENTRICITY": 0.00015864, "INCLINATION": 42.9996, "RA_OF_ASC_NODE": 165.2922, "ARG_OF_PERICENTER": 262.6943, "MEAN_ANOMALY": 337.7401, "EPHEMERIS_TYPE": 0, "CLASSIFICATION_TYPE": "U", "NORAD_CAT_ID": 66559, "ELEMENT_SET_NO": 999, "REV_AT_EPOCH": 346, "BSTAR": -0.019937002, "MEAN_MOTION_DOT": -0.01992567, "MEAN_MOTION_DDOT": 0}, "tle": {"line1": "1 66559U 25268C   25339.25002315 -.01992567  00000+0 -19937-1 0  9994", "line2": "2 66559  42.9996 165.2922 0001586 262.6943 337.7401 15.67862119  3465"}}, "geometry": {"type": "Point", "coordinates": [-163.4830227148421, 29.354516835156282]}}, {"type": "Feature", "properties": {"norad_id": 66560, "name": "STARLINK-35411", "group": "last-30-days", "lat": 30.38111741539213, "lon": -161.62688834193253, "alt_km": 373.0815882406814, "timestamp": "2025-12-06T05:40:08.011957+00:00", "meta": {"OBJECT_NAME": "STARLINK-35411", "OBJECT_ID": "2025-268D", "EPOCH": "2025-12-05T06:00:02.000160", "MEAN_MOTION": 15.67854043, "ECCENTRICITY": 0.00016567, "INCLINATION": 42.9994, "RA_OF_ASC_NODE": 165.2872, "ARG_OF_PERICENTER": 266.8611, "MEAN_ANOMALY": 335.501, "EPHEMERIS_TYPE": 0, "CLASSIFICATION_TYPE": "U", "NORAD_CAT_ID": 66560, "ELEMENT_SET_NO": 999, "REV_AT_EPOCH": 346, "BSTAR": -0.019916423, "MEAN_MOTION_DOT": -0.01990229, "MEAN_MOTION_DDOT": 0}, "tle": {"line1": "1 66560U 25268D   25339.25002315 -.01990229  00000+0 -19916-1 0  9996", "line2": "2 66560  42.9994 165.2872 0001656 266.8611 335.5010 15.67854043  3464"}}, "geometry": {"type": "Point", "coordinates": [-161.62688834193253, 30.38111741539213]}}, {"type": "Feature", "properties": {"norad_id": 66561, "name": "STARLINK-35305", "group": "last-30-days", "lat": 32.36420842317469, "lon": -157.77159672611646, "alt_km": 372.90759935527694, "timestamp": "2025-12-06T05:40:08.011970+00:00", "meta": {"OBJECT_NAME": "STARLINK-35305", "OBJECT_ID": "2025-268E", "EPOCH": "2025-12-05T06:00:02.000160", "MEAN_MOTION": 15.67865081, "ECCENTRICITY": 0.00015963, "INCLINATION": 42.9995, "RA_OF_ASC_NODE": 165.2776, "ARG_OF_PERICENTER": 262.5231, "MEAN_ANOMALY": 343.6569, "EPHEMERIS_TYPE": 0, "CLASSIFICATION_TYPE": "U", "NORAD_CAT_ID": 66561, "ELEMENT_SET_NO": 999, "REV_AT_EPOCH": 341, "BSTAR": -0.019930274, "MEAN_MOTION_DOT": -0.01992198, "MEAN_MOTION_DDOT": 0}, "tle": {"line1": "1 66561U 25268E   25339.25002315 -.01992198  00000+0 -19930-1 0  9990", "line2": "2 66561  42.9995 165.2776 0001596 262.5231 343.6569 15.67865081  3411"}}, "geometry": {"type": "Point", "coordinates": [-157.77159672611646, 32.36420842317469]}}, {"type": "Feature", "properties": {"norad_id": 66562, "name": "STARLINK-35579", "group": "last-30-days", "lat": 31.387738657205833, "lon": -159.71893281265005, "alt_km": 373.05973106296915, "timestamp": "2025-12-06T05:40:08.011980+00:00", "meta": {"OBJECT_NAME": "STARLINK-35579", "OBJECT_ID": "2025-268F", "EPOCH": "2025-12-05T06:00:02.000160", "MEAN_MOTION": 15.6786427, "ECCENTRICITY": 0.00016307, "INCLINATION": 42.9994, "RA_OF_ASC_NODE": 165.2819, "ARG_OF_PERICENTER": 262.5597, "MEAN_ANOMALY": 341.7056, "EPHEMERIS_TYPE": 0, "CLASSIFICATION_TYPE": "U", "NORAD_CAT_ID": 66562, "ELEMENT_SET_NO": 999, "REV_AT_EPOCH": 346, "BSTAR": -0.019944306, "MEAN_MOTION_DOT": -0.01993401, "MEAN_MOTION_DDOT": 0}, "tle": {"line1": "1 66562U 25268F   25339.25002315 -.01993401  00000+0 -19944-1 0  9994", "line2": "2 66562  42.9994 165.2819 0001630 262.5597 341.7056 15.67864270  3467"}}, "geometry": {"type": "Point", "coordinates": [-159.71893281265005, 31.387738657205833]}}, {"type": "Feature", "properties": {"norad_id": 66563, "name": "STARLINK-35437", "group": "last-30-days", "lat": 33.304703639082376, "lon": -155.79441824208536, "alt_km": 372.887314329344, "timestamp": "2025-12-06T05:40:08.011990+00:00", "meta": {"OBJECT_NAME": "STARLINK-35437", "OBJECT_ID": "2025-268G", "EPOCH": "2025-12-05T06:00:02.000160", "MEAN_MOTION": 15.67864157, "ECCENTRICITY": 0.00016949, "INCLINATION": 42.9995, "RA_OF_ASC_NODE": 165.2724, "ARG_OF_PERICENTER": 261.5543, "MEAN_ANOMALY": 346.5453, "EPHEMERIS_TYPE": 0, "CLASSIFICATION_TYPE": "U", "NORAD_CAT_ID": 66563, "ELEMENT_SET_NO": 999, "REV_AT_EPOCH": 346, "BSTAR": -0.01994541, "MEAN_MOTION_DOT": -0.01993542, "MEAN_MOTION_DDOT": 0}, "tle": {"line1": "1 66563U 25268G   25339.25002315 -.01993542  00000+0 -19945-1 0  9992", "line2": "2 66563  42.9995 165.2724 0001694 261.5543 346.5453 15.67864157  3462"}}, "geometry": {"type": "Point", "coordinates": [-155.79441824208536, 33.304703639082376]}}, {"type": "Feature", "properties": {"norad_id": 66564, "name": "STARLINK-35358", "group": "last-30-days", "lat": 34.21849262765139, "lon": -153.7617007334547, "alt_km": 372.69483855683484, "timestamp": "2025-12-06T05:40:08.012000+00:00", "meta": {"OBJECT_NAME": "STARLINK-35358", "OBJECT_ID": "2025-268H", "EPOCH": "2025-12-05T06:00:02.000160", "MEAN_MOTION": 15.67860478, "ECCENTRICITY": 0.00016382, "INCLINATION": 42.9995, "RA_OF_ASC_NODE": 165.2678, "ARG_OF_PERICENTER": 262.7035, "MEAN_ANOMALY": 347.3162, "EPHEMERIS_TYPE": 0, "CLASSIFICATION_TYPE": "U", "NORAD_CAT_ID": 66564, "ELEMENT_SET_NO": 999, "REV_AT_EPOCH": 341, "BSTAR": -0.019903833, "MEAN_MOTION_DOT": -0.01989573, "MEAN_MOTION_DDOT": 0}, "tle": {"line1": "1 66564U 25268H   25339.25002315 -.01989573  00000+0 -19904-1 0  9997", "line2": "2 66564  42.9995 165.2678 0001638 262.7035 347.3162 15.67860478  3411"}}, "geometry": {"type": "Point", "coordinates": [-153.7617007334547, 34.21849262765139]}}, {"type": "Feature", "properties": {"norad_id": 66565, "name": "STARLINK-35893", "group": "last-30-days", "lat": 35.09302720030211, "lon": -151.69734994412346, "alt_km": 372.62000966970845, "timestamp": "2025-12-06T05:40:08.012012+00:00", "meta": {"OBJECT_NAME": "STARLINK-35893", "OBJECT_ID": "2025-268J", "EPOCH": "2025-12-05T06:00:02.000160", "MEAN_MOTION": 15.67862936, "ECCENTRICITY": 0.00016765, "INCLINATION": 42.9995, "RA_OF_ASC_NODE": 165.2628, "ARG_OF_PERICENTER": 262.8792, "MEAN_ANOMALY": 349.056, "EPHEMERIS_TYPE": 0, "CLASSIFICATION_TYPE": "U", "NORAD_CAT_ID": 66565, "ELEMENT_SET_NO": 999, "REV_AT_EPOCH": 346, "BSTAR": -0.019937435, "MEAN_MOTION_DOT": -0.01992737, "MEAN_MOTION_DDOT": 0}, "tle": {"line1": "1 66565U 25268J   25339.25002315 -.01992737  00000+0 -19937-1 0  9990", "line2": "2 66565  42.9995 165.2628 0001676 262.8792 349.0560 15.67862936  3467"}}, "geometry": {"type": "Point", "coordinates": [-151.69734994412346, 35.09302720030211]}}]}